{
    "links": {
        "self": "http://www.neowsapp.com/rest/v1/neo/3144143?api_key=iIulBulltgU6a56xZRHN4H3l9WmuAYTsLGpBGhQ2"
    },
    "id": "3144143",
    "neo_reference_id": "3144143",
    "name": "(2002 XT4)",
    "designation": "2002 XT4",
    "nasa_jpl_url": "http://ssd.jpl.nasa.gov/sbdb.cgi?sstr=3144143",
    "absolute_magnitude_h": 24.0,
    "estimated_diameter": {
        "kilometers": {
            "estimated_diameter_min": 0.0421264611,
            "estimated_diameter_max": 0.0941976306
        },
        "meters": {
            "estimated_diameter_min": 42.1264610556,
            "estimated_diameter_max": 94.1976305719
        },
        "miles": {
            "estimated_diameter_min": 0.0261761612,
            "estimated_diameter_max": 0.0585316759
        },
        "feet": {
            "estimated_diameter_min": 138.2101784897,
            "estimated_diameter_max": 309.0473542854
        }
    },
    "is_potentially_hazardous_asteroid": false,
    "close_approach_data": [
        {
            "close_approach_date": "1996-07-30",
            "close_approach_date_full": "1996-Jul-30 16:34",
            "epoch_date_close_approach": 838744440000,
            "relative_velocity": {
                "kilometers_per_second": "19.0970080419",
                "kilometers_per_hour": "68749.228950921",
                "miles_per_hour": "42718.0972889764"
            },
            "miss_distance": {
                "astronomical": "0.3803533986",
                "lunar": "147.9574720554",
                "kilometers": "56900058.277820982",
                "miles": "35356056.7317022716"
            },
            "orbiting_body": "Earth"
        },
        {
            "close_approach_date": "1998-08-15",
            "close_approach_date_full": "1998-Aug-15 08:43",
            "epoch_date_close_approach": 903170580000,
            "relative_velocity": {
                "kilometers_per_second": "12.1897264122",
                "kilometers_per_hour": "43883.0150839751",
                "miles_per_hour": "27267.1990114844"
            },
            "miss_distance": {
                "astronomical": "0.1816115837",
                "lunar": "70.6469060593",
                "kilometers": "27168706.088846719",
                "miles": "16881851.1417699622"
            },
            "orbiting_body": "Earth"
        },
        {
            "close_approach_date": "2002-11-25",
            "close_approach_date_full": "2002-Nov-25 23:12",
            "epoch_date_close_approach": 1038265920000,
            "relative_velocity": {
                "kilometers_per_second": "10.1424669826",
                "kilometers_per_hour": "36512.8811372599",
                "miles_per_hour": "22687.6843933158"
            },
            "miss_distance": {
                "astronomical": "0.0336055964",
                "lunar": "13.0725769996",
                "kilometers": "5027325.641519668",
                "miles": "3123835.2994726984"
            },
            "orbiting_body": "Earth"
        },
        {
            "close_approach_date": "2004-12-14",
            "close_approach_date_full": "2004-Dec-14 01:13",
            "epoch_date_close_approach": 1102986780000,
            "relative_velocity": {
                "kilometers_per_second": "17.7395104242",
                "kilometers_per_hour": "63862.2375270602",
                "miles_per_hour": "39681.5108678558"
            },
            "miss_distance": {
                "astronomical": "0.2914706691",
                "lunar": "113.3820902799",
                "kilometers": "43603391.264834817",
                "miles": "27093890.9715497946"
            },
            "orbiting_body": "Earth"
        },
        {
            "close_approach_date": "2108-09-28",
            "close_approach_date_full": "2108-Sep-28 10:44",
            "epoch_date_close_approach": 4378272240000,
            "relative_velocity": {
                "kilometers_per_second": "8.1980993692",
                "kilometers_per_hour": "29513.1577291224",
                "miles_per_hour": "18338.328478965"
            },
            "miss_distance": {
                "astronomical": "0.0940802329",
                "lunar": "36.5972105981",
                "kilometers": "14074202.450943923",
                "miles": "8745303.8778872174"
            },
            "orbiting_body": "Mars"
        }
    ],
    "orbital_data": {
        "orbit_id": "10",
        "orbit_determination_date": "2017-04-06 09:14:34",
        "first_observation_date": "2002-11-30",
        "last_observation_date": "2002-12-28",
        "data_arc_in_days": 28,
        "observations_used": 36,
        "orbit_uncertainty": "7",
        "minimum_orbit_intersection": ".0190439",
        "jupiter_tisserand_invariant": "4.233",
        "epoch_osculation": "2459000.5",
        "eccentricity": ".422510159926267",
        "semi_major_axis": "1.609360100343358",
        "inclination": "7.511148931703794",
        "ascending_node_longitude": "67.27316784866103",
        "orbital_period": "745.7242600088174",
        "perihelion_distance": ".9293891069683327",
        "perihelion_argument": "313.2673970608499",
        "aphelion_distance": "2.289331093718384",
        "perihelion_time": "2459284.344071984409",
        "mean_anomaly": "222.9736601124133",
        "mean_motion": ".4827521636425552",
        "equinox": "J2000",
        "orbit_class": {
            "orbit_class_type": "APO",
            "orbit_class_description": "Near-Earth asteroid orbits which cross the Earth’s orbit similar to that of 1862 Apollo",
            "orbit_class_range": "a (semi-major axis) > 1.0 AU; q (perihelion) < 1.017 AU"
        }
    },
    "is_sentry_object": false
}